{"fetched_at":"2026-07-09T18:17:00.794Z","source":"https://celestrak.org/NORAD/elements/gp.php?NAME=FIREFLY&FORMAT=JSON","constellation":"pixxel","records":[{"OBJECT_NAME":"FIREFLY-1","OBJECT_ID":"2025-009CW","EPOCH":"2026-07-08T22:42:26.060544","CLASSIFICATION_TYPE":"U","MEAN_MOTION":14.92730649,"ECCENTRICITY":0.00022618,"INCLINATION":97.7063,"RA_OF_ASC_NODE":267.6255,"ARG_OF_PERICENTER":254.8068,"MEAN_ANOMALY":105.2901,"EPHEMERIS_TYPE":0,"NORAD_CAT_ID":62701,"ELEMENT_SET_NO":999,"REV_AT_EPOCH":8056,"BSTAR":0.000088451604,"MEAN_MOTION_DOT":0.00000858,"MEAN_MOTION_DDOT":0},{"OBJECT_NAME":"FIREFLY-2","OBJECT_ID":"2025-009CZ","EPOCH":"2026-07-08T22:10:35.593248","CLASSIFICATION_TYPE":"U","MEAN_MOTION":14.92726742,"ECCENTRICITY":0.00069759,"INCLINATION":97.702,"RA_OF_ASC_NODE":267.377,"ARG_OF_PERICENTER":23.1803,"MEAN_ANOMALY":336.973,"EPHEMERIS_TYPE":0,"NORAD_CAT_ID":62704,"ELEMENT_SET_NO":999,"REV_AT_EPOCH":8056,"BSTAR":0.000070341714,"MEAN_MOTION_DOT":0.00000671,"MEAN_MOTION_DDOT":0},{"OBJECT_NAME":"FIREFLY-3","OBJECT_ID":"2025-009DF","EPOCH":"2026-07-08T21:39:28.287072","CLASSIFICATION_TYPE":"U","MEAN_MOTION":14.92791165,"ECCENTRICITY":0.00048843,"INCLINATION":97.7053,"RA_OF_ASC_NODE":267.6126,"ARG_OF_PERICENTER":87.6006,"MEAN_ANOMALY":272.5773,"EPHEMERIS_TYPE":0,"NORAD_CAT_ID":62710,"ELEMENT_SET_NO":999,"REV_AT_EPOCH":8057,"BSTAR":0.00010960592,"MEAN_MOTION_DOT":0.00001078,"MEAN_MOTION_DDOT":0}]}
