FIREFLY-1               
1 62701U 25009CW  26189.94613496  .00000858  00000+0  88452-4 0  9991
2 62701  97.7063 267.6255 0002261 254.8068 105.2901 14.92730649 80569
FIREFLY-2               
1 62704U 25009CZ  26189.92402307  .00000671  00000+0  70342-4 0  9991
2 62704  97.7020 267.3770 0006975  23.1803 336.9730 14.92726742 80566
FIREFLY-3               
1 62710U 25009DF  26189.90241073  .00001078  00000+0  10961-3 0  9999
2 62710  97.7053 267.6126 0004884  87.6006 272.5773 14.92791165 80578
